COSMOS 2532 (RODNIK-S *)
1 43753U 18097C   26201.99388627  .00000096  00000+0  61928-3 0  9993
2 43753  82.5118 201.1397 0017758 348.1632  11.9028 12.42910949346473
MINXSS-2                
1 43758U 18099A   26201.76904020  .00026876  00000+0  49516-3 0  9999
2 43758  97.4515 279.0910 0008952 143.4502 216.7361 15.49089709419328
SIRION PATHFINDER-2     
1 43759U 18099B   26201.08076455  .00002733  00000+0  15058-3 0  9997
2 43759  97.4233 249.3587 0008997 174.6217 185.5114 15.14800599417602
AISTECHSAT 2            
1 43768U 18099L   26201.10004357  .00002637  00000+0  14173-3 0  9992
2 43768  97.4273 248.4166 0005139 164.6633 195.4757 15.15741130417266
FOX-1CLIFF (AO-95)      
1 43770U 18099N   26201.69339169  .00006582  00000+0  24842-3 0  9998
2 43770  97.4361 261.8279 0007725 217.8833 142.1863 15.27341494418335
RANGE-A                 
1 43773U 18099R   26201.36676677  .00002019  00000+0  11586-3 0  9995
2 43773  97.3949 242.9773 0009021 224.3844 135.6665 15.13631771417515
SNUSAT-2                
1 43782U 18099AA  26201.13840764  .00004304  00000+0  18974-3 0  9997
2 43782  97.4037 254.0225 0010747 171.0572 189.0857 15.22283253418046
SNUGLITE                
1 43784U 18099AC  26201.87988572  .00008226  00000+0  30527-3 0  9995
2 43784  97.3846 255.8400 0004086 145.7007 214.4497 15.27834690418460
ITASAT                  
1 43786U 18099AE  26201.41463476  .00003642  00000+0  17496-3 0  9995
2 43786  97.4007 252.2679 0011187 230.0239 130.0014 15.19417487417959
EAGLET-I                
1 43790U 18099AJ  26201.11949023  .00001636  00000+0  95801-4 0  9992
2 43790  97.4212 249.9171 0009921 224.9635 135.0794 15.13154065417311
ESEO                    
1 43792U 18099AL  26201.37295646  .00001056  00000+0  79824-4 0  9990
2 43792  97.3964 237.3388 0011143 213.1460 146.9069 15.04335672416794
THEA                    
1 43796U 18099AQ  26201.69665659  .00011824  00000+0  33857-3 0  9993
2 43796  97.4419 271.7379 0008495 156.9305 203.2322 15.36054791417834
ASTROCAST 0.1           
1 43798U 18099AS  26201.94566345  .00031118  00000+0  52234-3 0  9993
2 43798  97.4363 281.5507 0005328 113.2413 246.9401 15.51731258419666
JY1SAT (JO-97)          
1 43803U 18099AX  26201.81639695  .00012271  00000+0  36756-3 0  9995
2 43803  97.4107 264.7878 0007260 141.3682 218.8082 15.34633292418785
SUOMI-100               
1 43804U 18099AY  26201.71837388  .00007848  00000+0  27991-3 0  9999
2 43804  97.4162 261.9999 0011054 154.4041 205.7749 15.29109783418546
CENTAURI-1              
1 43809U 18099BD  26201.39517788  .00002657  00000+0  13893-3 0  9996
2 43809  97.4199 252.4045 0013448 205.8760 154.1803 15.16653293417538
GLOBAL-2                
1 43812U 18099BG  26201.83238823  .00002053  00000+0  13417-3 0  9991
2 43812  97.3546 236.9472 0007032  51.6762 308.5098 15.08847502416987
SEAHAWK-1               
1 43820U 18099BQ  26201.83984934  .00005905  00000+0  25166-3 0  9994
2 43820  97.3936 253.8201 0008455 178.3168 181.8098 15.23294108417656
SAUDISAT 5A             
1 43831U 18102A   26201.95147455  .00003565  00000+0  13163-3 0  9997
2 43831  97.3046 262.8850 0009879  25.0740 335.0977 15.28356355420836
SAUDISAT 5B             
1 43833U 18102C   26201.96483155  .00003384  00000+0  12416-3 0  9999
2 43833  97.3155 266.0290 0010648  26.3811 333.7969 15.28597608420959
ISAT                    
1 43879U 18111D   26201.78185205  .00093448  00000+0  71539-3 0  9995
2 43879  97.5840 139.7558 0008566 129.2596 230.9428 15.71801824416436
UWE-4                   
1 43880U 18111E   26201.78247037  .00021799  00000+0  41741-3 0  9991
2 43880  97.5826 131.7716 0007026 173.9264 186.2072 15.48042440415979
D-STAR ONE (SPARROW)    
1 43881U 18111F   26201.81392857  .00232696  00000+0  86831-3 0  9996
2 43881  97.6062 146.1688 0009193 135.5350 224.6660 15.87327600416684
JILIN-1 09              
1 43943U 19005B   26201.93704510  .00002992  00000+0  13902-3 0  9997
2 43943  97.4740 296.6183 0001795  22.6808 337.4507 15.20770048414270
JILIN-1 10              
1 43946U 19005E   26201.89892047  .00003866  00000+0  15290-3 0  9991
2 43946  97.4793 300.7129 0009074 151.4168 208.7569 15.26045186414458
EGYPTSAT-A (MISRSAT-A)  
1 44047U 19008A   26201.91972477 -.00000094  00000+0 -70710-5 0  9998
2 44047  98.0173 266.2270 0001788  92.1295 268.0118 14.72338380398203
EMISAT                  
1 44078U 19018A   26201.96712190 -.00000053  00000+0 -26634-5 0  9993
2 44078  98.4625 260.5781 0019588 114.8940 245.4289 14.43650167384934
JILIN-1 GAOFEN 3A       
1 44312U 19032C   26201.97017341  .00008386  00000+0  26504-3 0  9996
2 44312  44.9738 170.9084 0005155 147.6431 212.4771 15.33271066393027
WT 1B                   
1 44316U 19032G   26201.48670862  .00004613  00000+0  17745-3 0  9995
2 44316  44.9724 239.0888 0008122  69.2578 290.9175 15.27779339392176
