OBJECT_NAME,OBJECT_ID,EPOCH,MEAN_MOTION,ECCENTRICITY,INCLINATION,RA_OF_ASC_NODE,ARG_OF_PERICENTER,MEAN_ANOMALY,EPHEMERIS_TYPE,CLASSIFICATION_TYPE,NORAD_CAT_ID,ELEMENT_SET_NO,REV_AT_EPOCH,BSTAR,MEAN_MOTION_DOT,MEAN_MOTION_DDOT
COSMOS 2532 (RODNIK-S 18),2018-097C,2026-07-20T23:51:11.773728,12.42910949,.00177581,82.5118,201.1397,348.1632,11.9028,0,U,43753,999,34647,.6192753E-3,.96E-6,0
MINXSS-2,2018-099A,2026-07-20T18:27:25.073280,15.49089709,.00089529,97.4515,279.0910,143.4502,216.7361,0,U,43758,999,41932,.49515535E-3,.26876E-3,0
SIRION PATHFINDER-2,2018-099B,2026-07-20T01:56:18.057120,15.14800599,.00089975,97.4233,249.3587,174.6217,185.5114,0,U,43759,999,41760,.15057646E-3,.2733E-4,0
AISTECHSAT 2,2018-099L,2026-07-20T02:24:03.764448,15.15741130,.00051397,97.4273,248.4166,164.6633,195.4757,0,U,43768,999,41726,.14172826E-3,.2637E-4,0
FOX-1CLIFF (AO-95),2018-099N,2026-07-20T16:38:29.042016,15.27341494,.00077257,97.4361,261.8279,217.8833,142.1863,0,U,43770,999,41833,.24841518E-3,.6582E-4,0
RANGE-A,2018-099R,2026-07-20T08:48:08.648928,15.13631771,.00090218,97.3949,242.9773,224.3844,135.6665,0,U,43773,999,41751,.1158611E-3,.2019E-4,0
SNUSAT-2,2018-099AA,2026-07-20T03:19:18.420096,15.22283253,.00107475,97.4037,254.0225,171.0572,189.0857,0,U,43782,999,41804,.18973754E-3,.4304E-4,0
SNUGLITE,2018-099AC,2026-07-20T21:07:02.126208,15.27834690,.00040862,97.3846,255.8400,145.7007,214.4497,0,U,43784,999,41846,.30527094E-3,.8226E-4,0
ITASAT,2018-099AE,2026-07-20T09:57:04.443264,15.19417487,.00111874,97.4007,252.2679,230.0239,130.0014,0,U,43786,999,41795,.17496143E-3,.3642E-4,0
EAGLET-I,2018-099AJ,2026-07-20T02:52:03.955872,15.13154065,.00099211,97.4212,249.9171,224.9635,135.0794,0,U,43790,999,41731,.95800816E-4,.1636E-4,0
ESEO,2018-099AL,2026-07-20T08:57:03.438144,15.04335672,.00111436,97.3964,237.3388,213.1460,146.9069,0,U,43792,999,41679,.79823671E-4,.1056E-4,0
THEA,2018-099AQ,2026-07-20T16:43:11.129376,15.36054791,.00084955,97.4419,271.7379,156.9305,203.2322,0,U,43796,999,41783,.3385714E-3,.11824E-3,0
ASTROCAST 0.1,2018-099AS,2026-07-20T22:41:45.322080,15.51731258,.00053283,97.4363,281.5507,113.2413,246.9401,0,U,43798,999,41966,.52233669E-3,.31118E-3,0
JY1SAT (JO-97),2018-099AX,2026-07-20T19:35:36.696480,15.34633292,.00072607,97.4107,264.7878,141.3682,218.8082,0,U,43803,999,41878,.36756485E-3,.12271E-3,0
SUOMI-100,2018-099AY,2026-07-20T17:14:27.503232,15.29109783,.00110547,97.4162,261.9999,154.4041,205.7749,0,U,43804,999,41854,.27991127E-3,.7848E-4,0
CENTAURI-1,2018-099BD,2026-07-20T09:29:03.368832,15.16653293,.00134488,97.4199,252.4045,205.8760,154.1803,0,U,43809,999,41753,.13892551E-3,.2657E-4,0
GLOBAL-2,2018-099BG,2026-07-20T19:58:38.343072,15.08847502,.00070324,97.3546,236.9472,51.6762,308.5098,0,U,43812,999,41698,.13416569E-3,.2053E-4,0
SEAHAWK-1,2018-099BQ,2026-07-20T20:09:22.982976,15.23294108,.00084555,97.3936,253.8201,178.3168,181.8098,0,U,43820,999,41765,.25166478E-3,.5905E-4,0
SAUDISAT 5A,2018-102A,2026-07-20T22:50:07.401120,15.28356355,.00098794,97.3046,262.8850,25.0740,335.0977,0,U,43831,999,42083,.13162842E-3,.3565E-4,0
SAUDISAT 5B,2018-102C,2026-07-20T23:09:21.445920,15.28597608,.00106488,97.3155,266.0290,26.3811,333.7969,0,U,43833,999,42095,.12416153E-3,.3384E-4,0
ISAT,2018-111D,2026-07-20T18:45:52.017120,15.71801824,.00085666,97.5840,139.7558,129.2596,230.9428,0,U,43879,999,41643,.71539495E-3,.93448E-3,0
UWE-4,2018-111E,2026-07-20T18:46:45.439968,15.48042440,.00070262,97.5826,131.7716,173.9264,186.2072,0,U,43880,999,41597,.41740916E-3,.21799E-3,0
D-STAR ONE (SPARROW),2018-111F,2026-07-20T19:32:03.428448,15.87327600,.00091939,97.6062,146.1688,135.5350,224.6660,0,U,43881,999,41668,.86830844E-3,.232696E-2,0
JILIN-1 09,2019-005B,2026-07-20T22:29:20.696640,15.20770048,.00017957,97.4740,296.6183,22.6808,337.4507,0,U,43943,999,41427,.13902324E-3,.2992E-4,0
JILIN-1 10,2019-005E,2026-07-20T21:34:26.728608,15.26045186,.00090744,97.4793,300.7129,151.4168,208.7569,0,U,43946,999,41445,.15289716E-3,.3866E-4,0
EGYPTSAT-A (MISRSAT-A),2019-008A,2026-07-20T22:04:24.220128,14.72338380,.00017881,98.0173,266.2270,92.1295,268.0118,0,U,44047,999,39820,-.707101E-5,-.94E-6,0
EMISAT,2019-018A,2026-07-20T23:12:39.332160,14.43650167,.0019588,98.4625,260.5781,114.8940,245.4289,0,U,44078,999,38493,-.2663444E-5,-.53E-6,0
JILIN-1 GAOFEN 3A,2019-032C,2026-07-20T23:17:02.982624,15.33271066,.0005155,44.9738,170.9084,147.6431,212.4771,0,U,44312,999,39302,.2650406E-3,.8386E-4,0
WT 1B,2019-032G,2026-07-20T11:40:51.624768,15.27779339,.0008122,44.9724,239.0888,69.2578,290.9175,0,U,44316,999,39217,.17745097E-3,.4613E-4,0
